[{"OBJECT_NAME":"STARLINK-35300","OBJECT_ID":"2025-218K","EPOCH":"2025-12-27T15:13:30.382752","MEAN_MOTION":15.05660518,"ECCENTRICITY":0.0002386,"INCLINATION":97.6031,"RA_OF_ASC_NODE":221.8703,"ARG_OF_PERICENTER":68.6351,"MEAN_ANOMALY":291.5131,"EPHEMERIS_TYPE":0,"CLASSIFICATION_TYPE":"U","NORAD_CAT_ID":65800,"ELEMENT_SET_NO":999,"REV_AT_EPOCH":1412,"BSTAR":0.00067946,"MEAN_MOTION_DOT":9.76e-5,"MEAN_MOTION_DDOT":0},{"OBJECT_NAME":"STARLINK-35296","OBJECT_ID":"2025-218L","EPOCH":"2025-12-27T12:26:01.275648","MEAN_MOTION":15.05653829,"ECCENTRICITY":0.0002122,"INCLINATION":97.6017,"RA_OF_ASC_NODE":221.8743,"ARG_OF_PERICENTER":80.5902,"MEAN_ANOMALY":279.5564,"EPHEMERIS_TYPE":0,"CLASSIFICATION_TYPE":"U","NORAD_CAT_ID":65801,"ELEMENT_SET_NO":999,"REV_AT_EPOCH":1411,"BSTAR":0.00027483,"MEAN_MOTION_DOT":3.907e-5,"MEAN_MOTION_DDOT":0},{"OBJECT_NAME":"STARLINK-34919","OBJECT_ID":"2025-218M","EPOCH":"2025-12-27T20:48:26.506080","MEAN_MOTION":15.05661247,"ECCENTRICITY":0.0003294,"INCLINATION":97.6032,"RA_OF_ASC_NODE":222.1768,"ARG_OF_PERICENTER":86.1839,"MEAN_ANOMALY":273.9764,"EPHEMERIS_TYPE":0,"CLASSIFICATION_TYPE":"U","NORAD_CAT_ID":65802,"ELEMENT_SET_NO":999,"REV_AT_EPOCH":1416,"BSTAR":0.00045645,"MEAN_MOTION_DOT":6.534e-5,"MEAN_MOTION_DDOT":0},{"OBJECT_NAME":"STARLINK-35286","OBJECT_ID":"2025-218N","EPOCH":"2025-12-27T15:09:29.498688","MEAN_MOTION":15.05664071,"ECCENTRICITY":0.0001964,"INCLINATION":97.6035,"RA_OF_ASC_NODE":221.8737,"ARG_OF_PERICENTER":71.3576,"MEAN_ANOMALY":288.7864,"EPHEMERIS_TYPE":0,"CLASSIFICATION_TYPE":"U","NORAD_CAT_ID":65803,"ELEMENT_SET_NO":999,"REV_AT_EPOCH":1412,"BSTAR":0.0001504,"MEAN_MOTION_DOT":2.111e-5,"MEAN_MOTION_DDOT":0},{"OBJECT_NAME":"STARLINK-35266","OBJECT_ID":"2025-218P","EPOCH":"2025-12-27T15:01:31.427616","MEAN_MOTION":15.05653134,"ECCENTRICITY":0.000269,"INCLINATION":97.604,"RA_OF_ASC_NODE":221.8831,"ARG_OF_PERICENTER":75.0197,"MEAN_ANOMALY":285.1328,"EPHEMERIS_TYPE":0,"CLASSIFICATION_TYPE":"U","NORAD_CAT_ID":65804,"ELEMENT_SET_NO":999,"REV_AT_EPOCH":1412,"BSTAR":0.00023315,"MEAN_MOTION_DOT":3.305e-5,"MEAN_MOTION_DDOT":0},{"OBJECT_NAME":"STARLINK-35273","OBJECT_ID":"2025-218Q","EPOCH":"2025-12-27T14:57:32.033088","MEAN_MOTION":15.05657665,"ECCENTRICITY":0.0002266,"INCLINATION":97.6036,"RA_OF_ASC_NODE":221.8872,"ARG_OF_PERICENTER":85.9077,"MEAN_ANOMALY":274.2409,"EPHEMERIS_TYPE":0,"CLASSIFICATION_TYPE":"U","NORAD_CAT_ID":65805,"ELEMENT_SET_NO":999,"REV_AT_EPOCH":1412,"BSTAR":0.00070435,"MEAN_MOTION_DOT":0.00010119,"MEAN_MOTION_DDOT":0},{"OBJECT_NAME":"STARLINK-35047","OBJECT_ID":"2025-218R","EPOCH":"2025-12-27T14:37:36.365088","MEAN_MOTION":15.05656403,"ECCENTRICITY":0.0003194,"INCLINATION":97.6022,"RA_OF_ASC_NODE":221.9063,"ARG_OF_PERICENTER":61.935,"MEAN_ANOMALY":298.2199,"EPHEMERIS_TYPE":0,"CLASSIFICATION_TYPE":"U","NORAD_CAT_ID":65806,"ELEMENT_SET_NO":999,"REV_AT_EPOCH":1412,"BSTAR":0.00047388,"MEAN_MOTION_DOT":6.785e-5,"MEAN_MOTION_DDOT":0},{"OBJECT_NAME":"STARLINK-35285","OBJECT_ID":"2025-218S","EPOCH":"2025-12-27T21:08:23.941824","MEAN_MOTION":15.05615242,"ECCENTRICITY":0.0002699,"INCLINATION":97.6025,"RA_OF_ASC_NODE":222.1601,"ARG_OF_PERICENTER":65.3737,"MEAN_ANOMALY":294.7771,"EPHEMERIS_TYPE":0,"CLASSIFICATION_TYPE":"U","NORAD_CAT_ID":65807,"ELEMENT_SET_NO":999,"REV_AT_EPOCH":1416,"BSTAR":-0.00054081,"MEAN_MOTION_DOT":-7.849e-5,"MEAN_MOTION_DDOT":0},{"OBJECT_NAME":"STARLINK-34580","OBJECT_ID":"2025-218T","EPOCH":"2025-12-27T14:33:36.041760","MEAN_MOTION":15.05644041,"ECCENTRICITY":0.0002615,"INCLINATION":97.6025,"RA_OF_ASC_NODE":221.9095,"ARG_OF_PERICENTER":90.2601,"MEAN_ANOMALY":269.8926,"EPHEMERIS_TYPE":0,"CLASSIFICATION_TYPE":"U","NORAD_CAT_ID":65808,"ELEMENT_SET_NO":999,"REV_AT_EPOCH":1412,"BSTAR":0.00024254,"MEAN_MOTION_DOT":3.44e-5,"MEAN_MOTION_DDOT":0},{"OBJECT_NAME":"STARLINK-35289","OBJECT_ID":"2025-218U","EPOCH":"2025-12-27T14:21:40.370688","MEAN_MOTION":15.05669865,"ECCENTRICITY":0.0001761,"INCLINATION":97.6029,"RA_OF_ASC_NODE":221.9206,"ARG_OF_PERICENTER":88.579,"MEAN_ANOMALY":271.5638,"EPHEMERIS_TYPE":0,"CLASSIFICATION_TYPE":"U","NORAD_CAT_ID":65809,"ELEMENT_SET_NO":999,"REV_AT_EPOCH":1412,"BSTAR":0.00072488,"MEAN_MOTION_DOT":0.0001042,"MEAN_MOTION_DDOT":0},{"OBJECT_NAME":"STARLINK-35268","OBJECT_ID":"2025-218V","EPOCH":"2025-12-27T14:09:41.546880","MEAN_MOTION":15.05654341,"ECCENTRICITY":0.0002383,"INCLINATION":97.6023,"RA_OF_ASC_NODE":221.9333,"ARG_OF_PERICENTER":78.5923,"MEAN_ANOMALY":281.5572,"EPHEMERIS_TYPE":0,"CLASSIFICATION_TYPE":"U","NORAD_CAT_ID":65810,"ELEMENT_SET_NO":999,"REV_AT_EPOCH":1412,"BSTAR":0.00029427,"MEAN_MOTION_DOT":4.188e-5,"MEAN_MOTION_DDOT":0},{"OBJECT_NAME":"STARLINK-35224","OBJECT_ID":"2025-218W","EPOCH":"2025-12-27T14:13:40.486080","MEAN_MOTION":15.05657244,"ECCENTRICITY":0.0002658,"INCLINATION":97.6024,"RA_OF_ASC_NODE":221.9301,"ARG_OF_PERICENTER":64.9534,"MEAN_ANOMALY":295.1968,"EPHEMERIS_TYPE":0,"CLASSIFICATION_TYPE":"U","NORAD_CAT_ID":65811,"ELEMENT_SET_NO":999,"REV_AT_EPOCH":1412,"BSTAR":0.00018154,"MEAN_MOTION_DOT":2.56e-5,"MEAN_MOTION_DDOT":0},{"OBJECT_NAME":"STARLINK-35271","OBJECT_ID":"2025-218X","EPOCH":"2025-12-27T13:57:43.898112","MEAN_MOTION":15.05661095,"ECCENTRICITY":0.0001865,"INCLINATION":97.6028,"RA_OF_ASC_NODE":221.9433,"ARG_OF_PERICENTER":80.148,"MEAN_ANOMALY":279.9958,"EPHEMERIS_TYPE":0,"CLASSIFICATION_TYPE":"U","NORAD_CAT_ID":65812,"ELEMENT_SET_NO":999,"REV_AT_EPOCH":1412,"BSTAR":0.00039455,"MEAN_MOTION_DOT":5.638e-5,"MEAN_MOTION_DDOT":0},{"OBJECT_NAME":"STARLINK-35215","OBJECT_ID":"2025-218Y","EPOCH":"2025-12-27T13:49:45.103872","MEAN_MOTION":15.05652337,"ECCENTRICITY":0.000192,"INCLINATION":97.6026,"RA_OF_ASC_NODE":221.9506,"ARG_OF_PERICENTER":87.0828,"MEAN_ANOMALY":273.0619,"EPHEMERIS_TYPE":0,"CLASSIFICATION_TYPE":"U","NORAD_CAT_ID":65813,"ELEMENT_SET_NO":999,"REV_AT_EPOCH":1412,"BSTAR":0.0001363,"MEAN_MOTION_DOT":1.907e-5,"MEAN_MOTION_DDOT":0},{"OBJECT_NAME":"STARLINK-35157","OBJECT_ID":"2025-218Z","EPOCH":"2025-12-27T08:58:40.588032","MEAN_MOTION":15.05659201,"ECCENTRICITY":0.0001643,"INCLINATION":97.6025,"RA_OF_ASC_NODE":221.7578,"ARG_OF_PERICENTER":85.4152,"MEAN_ANOMALY":274.7263,"EPHEMERIS_TYPE":0,"CLASSIFICATION_TYPE":"U","NORAD_CAT_ID":65814,"ELEMENT_SET_NO":999,"REV_AT_EPOCH":1409,"BSTAR":0.00037367,"MEAN_MOTION_DOT":5.336e-5,"MEAN_MOTION_DDOT":0},{"OBJECT_NAME":"STARLINK-35392","OBJECT_ID":"2025-221A","EPOCH":"2025-12-27T03:47:48.227712","MEAN_MOTION":15.30223265,"ECCENTRICITY":0.0001116,"INCLINATION":53.1571,"RA_OF_ASC_NODE":65.5971,"ARG_OF_PERICENTER":108.5431,"MEAN_ANOMALY":251.5692,"EPHEMERIS_TYPE":0,"CLASSIFICATION_TYPE":"U","NORAD_CAT_ID":65823,"ELEMENT_SET_NO":999,"REV_AT_EPOCH":1497,"BSTAR":0.0011546077,"MEAN_MOTION_DOT":0.00034018,"MEAN_MOTION_DDOT":0},{"OBJECT_NAME":"STARLINK-35281","OBJECT_ID":"2025-221B","EPOCH":"2025-12-27T14:50:44.769408","MEAN_MOTION":15.30264826,"ECCENTRICITY":0.0001303,"INCLINATION":53.1591,"RA_OF_ASC_NODE":63.4938,"ARG_OF_PERICENTER":85.0344,"MEAN_ANOMALY":275.0805,"EPHEMERIS_TYPE":0,"CLASSIFICATION_TYPE":"U","NORAD_CAT_ID":65824,"ELEMENT_SET_NO":999,"REV_AT_EPOCH":1504,"BSTAR":0.0016527,"MEAN_MOTION_DOT":0.0004901,"MEAN_MOTION_DDOT":0}]
