STARLINK-35300          
1 65800U 25218K   25361.63437943  .00009760  00000+0  67946-3 0  9999
2 65800  97.6031 221.8703 0002386  68.6351 291.5131 15.05660518 14125
STARLINK-35296          
1 65801U 25218L   25361.51807032  .00003907  00000+0  27483-3 0  9996
2 65801  97.6017 221.8743 0002122  80.5902 279.5564 15.05653829 14119
STARLINK-34919          
1 65802U 25218M   25361.86697345  .00006534  00000+0  45645-3 0  9998
2 65802  97.6032 222.1768 0003294  86.1839 273.9764 15.05661247 14168
STARLINK-35286          
1 65803U 25218N   25361.63159142  .00002111  00000+0  15040-3 0  9995
2 65803  97.6035 221.8737 0001964  71.3576 288.7864 15.05664071 14129
STARLINK-35266          
1 65804U 25218P   25361.62605819  .00003305  00000+0  23315-3 0  9992
2 65804  97.6040 221.8831 0002690  75.0197 285.1328 15.05653134 14122
STARLINK-35273          
1 65805U 25218Q   25361.62328742  .00010119  00000+0  70435-3 0  9996
2 65805  97.6036 221.8872 0002266  85.9077 274.2409 15.05657665 14121
STARLINK-35047          
1 65806U 25218R   25361.60944867  .00006785  00000+0  47388-3 0  9992
2 65806  97.6022 221.9063 0003194  61.9350 298.2199 15.05656403 14120
STARLINK-35285          
1 65807U 25218S   25361.88083266 -.00007849  00000+0 -54081-3 0  9992
2 65807  97.6025 222.1601 0002699  65.3737 294.7771 15.05615242 14168
STARLINK-34580          
1 65808U 25218T   25361.60666715  .00003440  00000+0  24254-3 0  9999
2 65808  97.6025 221.9095 0002615  90.2601 269.8926 15.05644041 14128
STARLINK-35289          
1 65809U 25218U   25361.59838392  .00010420  00000+0  72488-3 0  9998
2 65809  97.6029 221.9206 0001761  88.5790 271.5638 15.05669865 14128
STARLINK-35268          
1 65810U 25218V   25361.59006420  .00004188  00000+0  29427-3 0  9998
2 65810  97.6023 221.9333 0002383  78.5923 281.5572 15.05654341 14124
STARLINK-35224          
1 65811U 25218W   25361.59282970  .00002560  00000+0  18154-3 0  9992
2 65811  97.6024 221.9301 0002658  64.9534 295.1968 15.05657244 14128
STARLINK-35271          
1 65812U 25218X   25361.58175808  .00005638  00000+0  39455-3 0  9999
2 65812  97.6028 221.9433 0001865  80.1480 279.9958 15.05661095 14126
STARLINK-35215          
1 65813U 25218Y   25361.57621648  .00001907  00000+0  13630-3 0  9999
2 65813  97.6026 221.9506 0001920  87.0828 273.0619 15.05652337 14128
STARLINK-35157          
1 65814U 25218Z   25361.37408088  .00005336  00000+0  37367-3 0  9992
2 65814  97.6025 221.7578 0001643  85.4152 274.7263 15.05659201 14095
STARLINK-35392          
1 65823U 25221A   25361.15819708  .00034018  00000+0  11546-2 0  9996
2 65823  53.1571  65.5971 0001116 108.5431 251.5692 15.30223265 14972
STARLINK-35281          
1 65824U 25221B   25361.61857372  .00049010  00000+0  16527-2 0  9999
2 65824  53.1591  63.4938 0001303  85.0344 275.0805 15.30264826 15049
